url;identificador;locale;send;foto;nombre;telefono;fax;correo-electronico;web;horario;descripcion;direccion;localizacion;categorias
http://www.gijon.es/directorios/show/1753-farmacia-ldo-antonio-alvarez-abad;1753;es;fecha-actualizacion2014-01-22 12:03:08 +0100;http://www.gijon.es/data/images/f7/7298/150x178_v1_DirectorioFarmacias_ParafarmaciasFarmacia1.jpg;Farmacia Ldo. Antonio Álvarez Abad;985 348 262;;info@farmaciaanton.com;;Lunes a Viernes: 9:00-23:00 h. Sábados: 9:00-14:00 h.;Espacio de salud orientado a mejorar la calidad de vida de sus clientes, a través de la provisión de productos y servicios, en compromiso constante con la calidad y la innovación. Servicios: ortopedia, dietética, medicina natural, deportista, parafarmacia, veterinaria y óptica .;C/Magnus Blikstad, 19;43.537661 -5.66765;Farmacias, 2010, Gijón
http://www.gijon.es/directorios/show/710-farmacia-vegas-fernandez;710;es;fecha-actualizacion2015-04-06 14:32:28 +0200;http://www.gijon.es/data/images/f6/6631/150x178_v1_DirectorioFarmacias_ParafarmaciasFarmacia1.jpg;Farmacia Vegas Fernández;985 386 425;;;;Lunes a Viernes: 9:00-21:00h. Sábados:9:45-13:45h.;;Avda. Schultz, 42;43.535492 -5.664115;Farmacias, 2010, Gijón, Sanidad
http://www.gijon.es/directorios/show/709-farmacia-torre;709;es;fecha-actualizacion2014-01-22 12:02:39 +0100;http://www.gijon.es/data/images/f6/6630/150x178_v1_DirectorioFarmacias_ParafarmaciasFarmacia1.jpg;Farmacia Torre;985 340 004;;;;Lunes a Viernes:9:30-13:30h. y 16:15-19:30h.(Veranos 16:45-20:00h.) Sábados:9:45-13:30h.;;C/Corrida, 31;43.541685 -5.663927;Farmacias, 2010, Gijón
http://www.gijon.es/directorios/show/708-farmacia-torano;708;es;fecha-actualizacion2014-01-22 12:02:39 +0100;http://www.gijon.es/data/images/f6/6629/150x178_v1_DirectorioFarmacias_ParafarmaciasFarmacia1.jpg;Farmacia Toraño;985 341 733;;;;Lunes a Viernes:9:30-13:30h. y 16:15-19:30h.(Veranos 16:45-20:00h.) Sábados:9:45-13:30h.;Productos: Plantas medicinales, Fórmulas magistrales, Anáslisis clinicos, Alimentación Infantil.;C/Covadonga, 16;43.53948 -5.659464;Farmacias, 2010, Gijón
http://www.gijon.es/directorios/show/707-farmacia-somio;707;es;fecha-actualizacion2014-01-22 12:02:39 +0100;http://www.gijon.es/data/images/f6/6628/150x178_v1_DirectorioFarmacias_ParafarmaciasFarmacia1.jpg;Farmacia Somió;985 362 148;;;;Lunes a Viernes:9:30-13:30h. y 16:15-19:30h.(Veranos 16:45-20:00h.) Sábados:9:45-13:30h.;;Avda. Dionisio Cifuentes, 58;43.536706 -5.622479;Farmacias, 2010, Gijón
http://www.gijon.es/directorios/show/706-farmacia-soledad;706;es;fecha-actualizacion2014-01-22 12:02:39 +0100;http://www.gijon.es/data/images/f6/6627/150x178_v1_DirectorioFarmacias_ParafarmaciasFarmacia1.jpg;Farmacia Soledad;985 352 653;;;;Lunes a Viernes:9:30-13:30h. y 16:15-19:30h.(Veranos 16:45-20:00h.) Sábados:9:45-13:30h.;Productos: Fórmulas magistrales, Anáslisis clinicos, Medicina Homeopática.;C/San Agustín, 1;43.541335 -5.65982;Farmacias, 2010, Gijón
http://www.gijon.es/directorios/show/705-farmacia-silvia-gonzalez-fernandez;705;es;fecha-actualizacion2014-01-22 12:02:39 +0100;http://www.gijon.es/data/images/f6/6626/150x178_v1_DirectorioFarmacias_ParafarmaciasFarmacia1.jpg;Farmacia Silvia González Fernández;985 320 019;985 320 019;;;Lunes a Viernes:9:30-13:30h. y 16:15-19:30h.(Veranos 16:45-20:00h.) Sábados:9:45-13:30h.;;C/Manuel R. Álvarez, 3 (La Calzada);43.539154 -5.700848;Farmacias, 2010, Gijón
http://www.gijon.es/directorios/show/704-farmacia-rosa-maria-touris-romero;704;es;fecha-actualizacion2014-01-22 12:02:39 +0100;http://www.gijon.es/data/images/f6/6625/150x178_v1_DirectorioFarmacias_ParafarmaciasFarmacia1.jpg;Farmacia Rosa María Touris Romero;985 382 673;;;;Lunes a Viernes:9:30-13:30h. y 16:15-19:30h.(Veranos 16:45-20:00h.) Sábados:9:45-13:30h.;;Avda. Gaspar García Laviana, 67;43.525911 -5.666075;Farmacias, 2010, Gijón
http://www.gijon.es/directorios/show/703-farmacia-pinzales;703;es;fecha-actualizacion2014-01-22 12:02:39 +0100;http://www.gijon.es/data/images/f6/6624/150x178_v1_DirectorioFarmacias_ParafarmaciasFarmacia1.jpg;Farmacia Pinzales;985 167 544;;;;Lunes a Viernes:9:30-13:30h. y 16:15-19:30h.(Veranos 16:45-20:00h.) Sábados:9:45-13:30h.;;Casares;43.491818 -5.719736;Farmacias, 2010, Gijón
http://www.gijon.es/directorios/show/702-farmacia-palacio-c-b-ldo-daniela-palacio-fernadez-eduardo-palacio-fernandez;702;es;fecha-actualizacion2014-01-22 12:02:39 +0100;http://www.gijon.es/data/images/f6/6623/150x178_v1_DirectorioFarmacias_ParafarmaciasFarmacia1.jpg;Farmacia Palacio C.B. - Ldo. Daniela Palacio Fernádez, Eduardo Palacio Fernández;985 386 525;;rebotica@farmaciapalacio.com;;Lunes a Viernes:9:30-13:30h. y 16:15-19:30h.(Veranos 16:45-20:00h.) Sábados:9:45-13:30h.;;Farmacia Palacio C.B. - Ldo. Daniela Palacio Fernández, Eduado Palacio Fernández - Avda. Manuel Llaneza, 19 -21;43.535841 -5.6618;2010, Gijón, Farmacias
http://www.gijon.es/directorios/show/701-farmacia-pagin-c-b;701;es;fecha-actualizacion2014-01-22 12:02:39 +0100;http://www.gijon.es/data/images/f6/6622/150x178_v1_DirectorioFarmacias_ParafarmaciasFarmacia1.jpg;Farmacia Pagin C.B.;985 366 926;985 366 926;;;Lunes a Viernes:9:30-13:30h. y 16:15-19:30h.(Veranos 16:45-20:00h.) Sábados:9:45-13:30h.;;C/Avelino Gonzalez Mallada, 44;43.532453 -5.648713;Farmacias, 2010, Gijón
http://www.gijon.es/directorios/show/700-farmacia-molinon-lda-araceli-garcia-de-la-fuente;700;es;fecha-actualizacion2014-01-22 12:02:39 +0100;http://www.gijon.es/data/images/f6/6621/150x178_v1_DirectorioFarmacias_ParafarmaciasFarmacia1.jpg;Farmacia Molinón - Lda. Araceli García de La Fuente;985 195 451;985 335 136;c08882@cofas.es;;Lunes a Viernes:9:30-13:30h. y 16:15-19:30h.(Veranos 16:45-20:00h.) Sábados:9:45-13:30h.;;C/Gregorio Marañón, 3;43.534717 -5.642681;Farmacias, 2010, Gijón
http://www.gijon.es/directorios/show/699-farmacia-miguel-rubio-lopez;699;es;fecha-actualizacion2014-01-22 12:02:39 +0100;http://www.gijon.es/data/images/f6/6620/150x178_v1_DirectorioFarmacias_ParafarmaciasFarmacia1.jpg;Farmacia Miguel Rubio López;985 370 739;;;;Lunes a Viernes:9:30-13:30h. y 16:15-19:30h.(Veranos 16:45-20:00h.) Sábados:9:45-13:30h.;;C/Ezcurdia, 55;43.538236 -5.649832;Farmacias, 2010, Gijón
http://www.gijon.es/directorios/show/698-farmacia-mercedes-cepeda-saez;698;es;fecha-actualizacion2014-01-22 12:02:39 +0100;http://www.gijon.es/data/images/f6/6619/150x178_v1_DirectorioFarmacias_ParafarmaciasFarmacia1.jpg;Farmacia Mercedes Cepeda Saez;985 309 347;;;;Lunes a Viernes:9:30-13:30h. y 16:15-19:30h.(Veranos 16:45-20:00h.) Sábados:9:45-13:30h.; ;C/Andes, 40;43.537664 -5.697076;Farmacias, 2010, Gijón
http://www.gijon.es/directorios/show/697-farmacia-menendez-antolin-c-b;697;es;fecha-actualizacion2014-01-22 12:02:39 +0100;http://www.gijon.es/data/images/f6/6618/150x178_v1_DirectorioFarmacias_ParafarmaciasFarmacia1.jpg;Farmacia Menéndez Antolín C.B.;985 341 954;;;;Lunes a Viernes:9:30-13:30h. y 16:15-19:30h.(Veranos 16:45-20:00h.) Sábados:9:45-13:30h.; ;C/Moros, 2;43.542002 -5.663506;Farmacias, 2010, Gijón
http://www.gijon.es/directorios/show/696-farmacia-mazoy;696;es;fecha-actualizacion2014-01-22 12:02:39 +0100;http://www.gijon.es/data/images/f6/6617/150x178_v1_DirectorioFarmacias_ParafarmaciasFarmacia1.jpg;Farmacia Mazoy;985 152 191;985 386 553;;;Lunes a Viernes:9:30-13:30h. y 16:15-19:30h.(Veranos 16:45-20:00h.) Sábados:9:45-13:30h.; ;Ctra. Obispo, 59;43.521893 -5.665399;Farmacias, 2010, Gijón
http://www.gijon.es/directorios/show/695-farmacia-matilda-bermajo-mujica;695;es;fecha-actualizacion2014-01-22 12:02:39 +0100;http://www.gijon.es/data/images/f6/6616/150x178_v1_DirectorioFarmacias_ParafarmaciasFarmacia1.jpg;Farmacia Matilda Bermajo Mújica;985 341 115;;;;Lunes a Viernes:9:30-13:30h. y 16:15-19:30h.(Veranos 16:45-20:00h.) Sábados:9:45-13:30h.; ;C/Corrida, 39;43.541184 -5.663742;Farmacias, 2010, Gijón
http://www.gijon.es/directorios/show/694-farmacia-marina-alejandra-diaz-rodriguez;694;es;fecha-actualizacion2014-01-22 12:02:39 +0100;http://www.gijon.es/data/images/f6/6615/150x178_v1_DirectorioFarmacias_ParafarmaciasFarmacia1.jpg;Farmacia Marina Alejandra Diaz Rodríguez;985 140 891;;;;Lunes a Viernes:9:30-13:30h. y 16:15-19:30h.(Veranos 16:45-20:00h.) Sábados:9:45-13:30h.;;Farmacia  Marina Alejandra Díaz Rodríguez - C/Velázquez,7;43.522761 -5.678161;Farmacias, 2010, Gijón
http://www.gijon.es/directorios/show/693-farmacia-maria-dolores-bueno-boxo;693;es;fecha-actualizacion2014-01-22 12:02:39 +0100;http://www.gijon.es/data/images/f6/6614/150x178_v1_DirectorioFarmacias_ParafarmaciasFarmacia1.jpg;Farmacia María Dolores Bueno Boxo;985 381 477;;;;Lunes a Viernes:9:30-13:30h. y 16:15-19:30h.(Veranos 16:45-20:00h.) Sábados:9:45-13:30h.; ;C/Orán, 23;43.528826 -5.678596;Farmacias, 2010, Gijón
http://www.gijon.es/directorios/show/692-farmacia-maria-silvia-alvarez-sala-de-faes;692;es;fecha-actualizacion2014-01-22 12:02:39 +0100;http://www.gijon.es/data/images/f6/6613/150x178_v1_DirectorioFarmacias_ParafarmaciasFarmacia1.jpg;Farmacia María Silvia Álvarez Sala - De Faes;985 386 431;;;;Lunes a Viernes:9:30-13:30h. y 16:15-19:30h.(Veranos 16:45-20:00h.) Sábados:9:45-13:30h.;;Avda. Schultz, 79;43.531666 -5.665987;Farmacias, 2010, Gijón
http://www.gijon.es/directorios/show/691-farmacia-maria-pilar-menendez-alonso;691;es;fecha-actualizacion2014-01-22 12:02:39 +0100;http://www.gijon.es/data/images/f6/6612/150x178_v1_DirectorioFarmacias_ParafarmaciasFarmacia1.jpg;Farmacia María Pilar Menéndez Alonso;985 310 961;;;;Lunes a Viernes:9:30-13:30h. y 16:15-19:30h.(Veranos 16:45-20:00h.) Sábados:9:45-13:30h.; ;Farmacia María Piular Menéndez Alonso - C/Dos de Mayo, 26;43.538664 -5.68565;Farmacias, 2010, Gijón
http://www.gijon.es/directorios/show/690-farmacia-maria-nieves-rio-cifuentes;690;es;fecha-actualizacion2014-01-22 12:02:39 +0100;http://www.gijon.es/data/images/f6/6611/150x178_v1_DirectorioFarmacias_ParafarmaciasFarmacia1.jpg;Farmacia María Nieves Rio Cifuentes;985 344 607;;;;Lunes a Viernes:9:30-13:30h. y 16:15-19:30h.(Veranos 16:45-20:00h.) Sábados:9:45-13:30h.; ;C/Carmen, 4;43.54173 -5.666094;Farmacias, 2010, Gijón
http://www.gijon.es/directorios/show/689-farmacia-maria-luisa-blanco-suarez;689;es;fecha-actualizacion2014-01-22 12:02:39 +0100;http://www.gijon.es/data/images/f6/6610/150x178_v1_DirectorioFarmacias_ParafarmaciasFarmacia1.jpg;Farmacia María Luisa Blanco Suárez;985 374 513;985 374 513;;;Lunes a Viernes:9:30-13:30h. y 16:15-19:30h.(Veranos 16:45-20:00h.) Sábados:9:45-13:30h.; ;C/Quevedo, 28;43.531411 -5.652788;Farmacias, 2010, Gijón
http://www.gijon.es/directorios/show/688-farmacia-maria-del-carmen-represa-suarez;688;es;fecha-actualizacion2014-01-22 12:02:39 +0100;http://www.gijon.es/data/images/f6/6609/150x178_v1_DirectorioFarmacias_ParafarmaciasFarmacia1.jpg;Farmacia María del Carmen Represa Suárez;985 368 325;;;;Lunes a Viernes:9:30-13:30h. y 16:15-19:30h.(Veranos 16:45-20:00h.) Sábados:9:45-13:30h.;;Famacia María del Carmen Represa Suárez - C/Manso, 3;43.539846 -5.649376;Farmacias, 2010, Gijón
http://www.gijon.es/directorios/show/687-farmacia-maria-del-carmen-eijo-riego;687;es;fecha-actualizacion2014-01-22 12:02:38 +0100;http://www.gijon.es/data/images/f6/6608/150x178_v1_DirectorioFarmacias_ParafarmaciasFarmacia1.jpg;Farmacia María del Carmen Eijo Riego;985 383 784;;;;Lunes a Viernes:9:30-13:30h. y 16:15-19:30h.(Veranos 16:45-20:00h.) Sábados:9:45-13:30h.;;C/Mon, 28;43.521959 -5.669535;Farmacias, 2010, Gijón
http://www.gijon.es/directorios/show/686-farmacia-margarita-y-raquel-rodriguez-c-b;686;es;fecha-actualizacion2014-01-22 12:02:38 +0100;http://www.gijon.es/data/images/f6/6607/150x178_v1_DirectorioFarmacias_ParafarmaciasFarmacia1.jpg;Farmacia Margarita y Raquel Rodríguez C.B.;985 389 553;;;;Lunes a Viernes:9:30-13:30h. y 16:15-19:30h.(Veranos 16:45-20:00h.) Sábados:9:45-13:30h.;;C/Roncal, 19;43.527214 -5.66872;Farmacias, 2010, Gijón
http://www.gijon.es/directorios/show/685-farmacia-margarita-orviz;685;es;fecha-actualizacion2014-01-22 12:02:38 +0100;http://www.gijon.es/data/images/f6/6606/150x178_v1_DirectorioFarmacias_ParafarmaciasFarmacia1.jpg;Farmacia Margarita Orviz;985 371 750;;;;Lunes a Viernes:9:30-13:30h. y 16:15-19:30h.(Veranos 16:45-20:00h.) Sábados:9:45-13:30h.;;Avda. de Pablo Iglesias, 29;43.535981 -5.65624;Farmacias, 2010, Gijón
http://www.gijon.es/directorios/show/684-farmacia-m-milagros-fernandez;684;es;fecha-actualizacion2014-01-22 12:02:38 +0100;http://www.gijon.es/data/images/f6/6605/150x178_v1_DirectorioFarmacias_ParafarmaciasFarmacia1.jpg;Farmacia Mª Milagros Fernández;985 326 287;;;;Lunes a Viernes:9:30-13:30h. y 16:15-19:30h.(Veranos 16:45-20:00h.) Sábados:9:45-13:30h.;;C/Rosalía de Castro, 7;43.538191 -5.690245;Farmacias, 2010, Gijón
http://www.gijon.es/directorios/show/683-farmacia-m-luisa-braga-blanco;683;es;fecha-actualizacion2014-01-22 12:02:38 +0100;http://www.gijon.es/data/images/f6/6604/150x178_v1_DirectorioFarmacias_ParafarmaciasFarmacia1.jpg;Farmacia Mª Luisa Braga Blanco;985 384 412;;;;Lunes a Viernes:9:30-13:30h. y 16:15-19:30h.(Veranos 16:45-20:00h.) Sábados:9:45-13:30h.;Productos: Fórmulas magistrales, Anáslisis clinicos, zapatos, medias.;C/Alonso de Ojeda, 16;43.530993 -5.668446;Farmacias, 2010, Gijón
http://www.gijon.es/directorios/show/682-farmacia-m-ines-alvarez-alvarez;682;es;fecha-actualizacion2014-01-22 12:02:38 +0100;http://www.gijon.es/data/images/f6/6603/150x178_v1_DirectorioFarmacias_ParafarmaciasFarmacia1.jpg;Farmacia Mª Inés Álvarez Álvarez;985 311 481;;;;Lunes a Viernes:9:30-13:30h. y 16:15-19:30h.(Veranos 16:45-20:00h.) Sábados:9:45-13:30h.;Productos: Fórmulas magistrales, Plantas medicinales, cósmeticos.;Ctra. Obispo, 21;43.523628 -5.667143;Farmacias, 2010, Gijón
http://www.gijon.es/directorios/show/681-farmacia-luisa-maria-diez-sanchez;681;es;fecha-actualizacion2014-01-22 12:02:38 +0100;http://www.gijon.es/data/images/f6/6602/150x178_v1_DirectorioFarmacias_ParafarmaciasFarmacia1.jpg;Farmacia Luisa María Diez Sánchez;985 398 130;985 990 339;;;Lunes a Viernes:9:30-13:30h. y 16:15-19:30h.(Veranos 16:45-20:00h.) Sábados:9:45-13:30h.;;Farmacia  Luisa María Díez Sánchez - C/Puerto Ventana, 14;43.531852 -5.674181;Farmacias, 2010, Gijón
http://www.gijon.es/directorios/show/680-farmacia-los-campos;680;es;fecha-actualizacion2014-01-22 12:02:38 +0100;http://www.gijon.es/data/images/f6/6601/150x178_v1_DirectorioFarmacias_ParafarmaciasFarmacia1.jpg;Farmacia Los Campos;985 367 336;;;;Lunes a Viernes:9:30-13:30h. y 16:15-19:30h.(Veranos 16:45-20:00h.) Sábados:9:45-13:30h.;;Avda. de La Costa, 95;43.537486 -5.651945;Farmacias, 2010, Gijón
http://www.gijon.es/directorios/show/679-farmacia-ldo-de-viana-cardenas-garcia-berna;679;es;fecha-actualizacion2014-01-22 12:02:38 +0100;http://www.gijon.es/data/images/f6/6600/150x178_v1_DirectorioFarmacias_ParafarmaciasFarmacia1.jpg;Farmacia Ldo. de Viana - Cárdenas García - Berna;985 326 309;;;;Lunes a Viernes:9:30-13:30h. y 16:15-19:30h.(Veranos 16:45-20:00h.) Sábados:9:45-13:30h.;;Camino Rubín (Urb. El Lauredal-Jove), 1;43.538563 -5.706507;Farmacias, 2010, Gijón
http://www.gijon.es/directorios/show/678-farmacia-ldo-pedro-luances;678;es;fecha-actualizacion2014-01-22 12:02:38 +0100;http://www.gijon.es/data/images/f6/6599/150x178_v1_DirectorioFarmacias_ParafarmaciasFarmacia1.jpg;Farmacia Ldo. Pedro Luances;985 342 861;985 350 308;;;Lunes a Viernes:9:30-13:30h. y 16:15-19:30h.(Veranos 16:45-20:00h.) Sábados:9:45-13:30h.;;C/José las Clotas, 3;43.538973 -5.66339;Farmacias, 2010, Gijón
http://www.gijon.es/directorios/show/677-farmacia-ldo-miguel-manuel-martinez-blanco;677;es;fecha-actualizacion2014-01-22 12:02:38 +0100;http://www.gijon.es/data/images/f6/6598/150x178_v1_DirectorioFarmacias_ParafarmaciasFarmacia1.jpg;Farmacia Ldo. Miguel Manuel Martínez Blanco;985 345 526;985 352 623;farmacastillo@telefonica.net;;Lunes a Viernes:9:30-13:30h. y 16:15-19:30h.(Veranos 16:45-20:00h.) Sábados:9:45-13:30h.;;Famacia Ldo. Miguel Manuel Martínez Blanco - C/Corrida, 24;43.541557 -5.664018;Farmacias, 2010, Gijón
http://www.gijon.es/directorios/show/676-farmacia-ldo-german-lopez;676;es;fecha-actualizacion2014-01-22 12:02:38 +0100;http://www.gijon.es/data/images/f6/6597/150x178_v1_DirectorioFarmacias_ParafarmaciasFarmacia1.jpg;Farmacia Ldo. Germán López;985 384 498;;;;Lunes a Viernes:9:30-13:30h. y 16:15-19:30h.(Veranos 16:45-20:00h.) Sábados:9:45-13:30h.;Productos: Plantas medicinales, Fórmulas magistrales, cósmeticos.;C/Monsacro, 26;43.526421 -5.683606;Farmacias, 2010, Gijón
http://www.gijon.es/directorios/show/675-farmacia-ldo-fernando-verges;675;es;fecha-actualizacion2014-01-22 12:02:38 +0100;http://www.gijon.es/data/images/f6/6596/150x178_v1_DirectorioFarmacias_ParafarmaciasFarmacia1.jpg;Farmacia Ldo. Fernando Verges;985 342 147;;;;Lunes a Viernes:9:30-13:30h. y 16:15-19:30h.(Veranos 16:45-20:00h.) Sábados:9:45-13:30h.;;Plaza Instituto, 1;43.541648 -5.661352;Farmacias, 2010, Gijón
http://www.gijon.es/directorios/show/674-farmacia-ldo-angel-alemany-garcia;674;es;fecha-actualizacion2014-01-22 12:02:38 +0100;http://www.gijon.es/data/images/f6/6595/150x178_v1_DirectorioFarmacias_ParafarmaciasFarmacia1.jpg;Farmacia Ldo. Ángel Alemany García;985 363 514;;;;Lunes a Viernes:9:30-13:30h. y 16:15-19:30h.(Veranos 16:45-20:00h.) Sábados:9:45-13:30h.;;Farmacia Ld. Ángel Alemany García - Avda. de la Costa, 74;43.537505 -5.658233;Farmacias, 2010, Gijón
http://www.gijon.es/directorios/show/673-farmacia-lda-tomasa-garcia;673;es;fecha-actualizacion2014-01-22 12:02:38 +0100;http://www.gijon.es/data/images/f6/6594/150x178_v1_DirectorioFarmacias_ParafarmaciasFarmacia1.jpg;Farmacia Lda. Tomasa García;985 387 252;;;;Lunes a Viernes:9:30-13:30h. y 16:15-19:30h.(Veranos 16:45-20:00h.) Sábados:9:45-13:30h.;;Avda. Gaspar García Laviana, 1;43.526011 -5.670187;Farmacias, 2010, Gijón
http://www.gijon.es/directorios/show/672-farmacia-lda-miriam-guais;672;es;fecha-actualizacion2014-01-22 12:02:38 +0100;http://www.gijon.es/data/images/f6/6593/150x178_v1_DirectorioFarmacias_ParafarmaciasFarmacia1.jpg;Farmacia Lda. Miriam Guais;985 359 652;;;;Lunes a Viernes:9:30-13:30h. y 16:15-19:30h.(Veranos 16:45-20:00h.) Sábados:9:45-13:30h.;;C/Carlos Marx, 8;43.534376 -5.670817;Farmacias, 2010, Gijón
http://www.gijon.es/directorios/show/671-farmacia-lda-matilde-nunez;671;es;fecha-actualizacion2014-01-22 12:02:38 +0100;http://www.gijon.es/data/images/f6/6592/150x178_v1_DirectorioFarmacias_ParafarmaciasFarmacia1.jpg;Farmacia Lda. Matilde Nuñez;985 393 229;;;;Lunes a Viernes:9:30-13:30h. y 16:15-19:30h.(Veranos 16:45-20:00h.) Sábados:9:45-13:30h.;;C/Laviana, 9;43.532354 -5.659539;Farmacias, 2010, Gijón
http://www.gijon.es/directorios/show/670-farmacia-lda-maria-victoria-menendez;670;es;fecha-actualizacion2014-01-22 12:02:38 +0100;http://www.gijon.es/data/images/f6/6591/150x178_v1_DirectorioFarmacias_ParafarmaciasFarmacia1.jpg;Farmacia Lda. María Victoria Menéndez;985 345 218;;;;Lunes a Viernes:9:30-13:30h. y 16:15-19:30h.(Veranos 16:45-20:00h.) Sábados:9:45-13:30h.;;Avda. de la  Costa, 6;43.537948 -5.66508;Farmacias, 2010, Gijón
http://www.gijon.es/directorios/show/669-farmacia-lda-maria-teresa-canal-gonzalez;669;es;fecha-actualizacion2014-01-22 12:02:38 +0100;http://www.gijon.es/data/images/f6/6590/150x178_v1_DirectorioFarmacias_ParafarmaciasFarmacia1.jpg;Farmacia Lda. María Teresa Canal González;985 395 735;;;;Lunes a Viernes:9:30-13:30h. y 16:15-19:30h.(Veranos 16:45-20:00h.) Sábados:9:45-13:30h.;Marcas: Bayer, Puleva, Indax, DurexProductos: analgésicos,Alcohol,Tiritas,Aspirinas.;Farmaica Lda. Maria Teresa Canal González - C/Sierra del Sueve, 13;43.529311 -5.681643;Farmacias, 2010, Gijón
http://www.gijon.es/directorios/show/668-farmacia-lda-mari-pilar-ramallal;668;es;fecha-actualizacion2014-01-22 12:02:38 +0100;http://www.gijon.es/data/images/f6/6589/150x178_v1_DirectorioFarmacias_ParafarmaciasFarmacia1.jpg;Farmacia Lda. Marí Pilar Ramallal;985 136 006;;;;Lunes a Viernes:9:30-13:30h. y 16:15-19:30h.(Veranos 16:45-20:00h.) Sábados:9:45-13:30h.;Farmacia,ortopedia,veterinaria,Productos: Anáslisis clinicos, Fórmulas magistrales, zapatos ortopédicos.;La Camocha, s/n.;43.487739 -5.651597;Farmacias, 2010, Gijón
http://www.gijon.es/directorios/show/667-farmacia-lda-maria-del-pilar-fernandez;667;es;fecha-actualizacion2014-01-22 12:02:38 +0100;http://www.gijon.es/data/images/f6/6588/150x178_v1_DirectorioFarmacias_ParafarmaciasFarmacia1.jpg;Farmacia Lda. María del Pilar Fernández;985 175 143;985 342 746;mpilar-fernandez@recol.es;;Lunes a Viernes:9:30-13:30h. y 16:15-19:30h.(Veranos 16:45-20:00h.) Sábados:9:45-13:30h.;;Avda. de Portugal, 15;43.534985 -5.67762;Farmacias, 2010, Gijón
http://www.gijon.es/directorios/show/666-farmacia-lda-maria-del-carmen-suarez;666;es;fecha-actualizacion2014-01-22 12:02:38 +0100;http://www.gijon.es/data/images/f6/6587/150x178_v1_DirectorioFarmacias_ParafarmaciasFarmacia1.jpg;Farmacia Lda. María del Carmen Suárez;985 384 370;;;;Lunes a Viernes:9:30-13:30h. y 16:15-19:30h.(Veranos 16:45-20:00h.) Sábados:9:45-13:30h.;Productos: cósmeticos, Plantas medicinales, Fórmulas magistrales, Anáslisis clinicos.;C/Eleuterio Quintanilla, 63;43.530717 -5.663063;Farmacias, 2010, Gijón
http://www.gijon.es/directorios/show/665-farmacia-lda-magdalena-bascones-martinez;665;es;fecha-actualizacion2014-01-22 12:02:37 +0100;http://www.gijon.es/data/images/f6/6586/150x178_v1_DirectorioFarmacias_ParafarmaciasFarmacia1.jpg;Farmacia Lda. Magdalena Bascones Martínez;985 321 923;985 317 353;;;Lunes a Viernes:9:30-13:30h. y 16:15-19:30h.(Veranos 16:45-20:00h.) Sábados:9:45-13:30h.;;C/Domingo Juliana, 14;43.540491 -5.695773;Farmacias, 2010, Gijón
http://www.gijon.es/directorios/show/664-farmacia-lda-engracia-blanco;664;es;fecha-actualizacion2014-01-22 12:02:37 +0100;http://www.gijon.es/data/images/f6/6585/150x178_v1_DirectorioFarmacias_ParafarmaciasFarmacia1.jpg;Farmacia Lda. Engracia Blanco;985 321 474;;;;Lunes a Viernes:9:30-13:30h. y 16:15-19:30h.(Veranos 16:45-20:00h.) Sábados:9:45-13:30h.;;C/Uruguay, 2;43.539251 -5.697586;Farmacias, 2010, Gijón
http://www.gijon.es/directorios/show/663-farmacia-lda-daniel-romero;663;es;fecha-actualizacion2014-01-22 12:02:37 +0100;http://www.gijon.es/data/images/f6/6584/150x178_v1_DirectorioFarmacias_ParafarmaciasFarmacia1.jpg;Farmacia Lda. Daniel Romero;985 384 348;;;;Lunes a Viernes:9:30-13:30h. y 16:15-19:30h.(Veranos 16:45-20:00h.) Sábados:9:45-13:30h.;;Avda. de El Llano, 21;43.533993 -5.660335;Farmacias, 2010, Gijón
http://www.gijon.es/directorios/show/662-farmacia-lda-carolina-isabel-alvarez;662;es;fecha-actualizacion2014-01-22 12:02:37 +0100;http://www.gijon.es/data/images/f6/6583/150x178_v1_DirectorioFarmacias_ParafarmaciasFarmacia1.jpg;Farmacia Lda. Carolina Isabel Álvarez;985 350 761;;fciacalvarez@yahoo.es;;Lunes a Viernes:9:30-13:30h. y 16:15-19:30h.(Veranos 16:45-20:00h.) Sábados:9:45-13:30h.;Farmacia y OrtopediaProductos: zapatos ortopédicos.;C/Adaro, 1;43.535922 -5.668862;Farmacias, 2010, Gijón
http://www.gijon.es/directorios/show/661-farmacia-lda-carmen-pena;661;es;fecha-actualizacion2014-01-22 12:02:37 +0100;http://www.gijon.es/data/images/f6/6582/150x178_v1_DirectorioFarmacias_ParafarmaciasFarmacia1.jpg;Farmacia Lda. Carmen Peña;985 345 992;;;;Lunes a Viernes:9:30-13:30h. y 16:15-19:30h.(Veranos 16:45-20:00h.) Sábados:9:45-13:30h.;;Avda. Constitución, 20;43.536401 -5.666757;Farmacias, 2010, Gijón
http://www.gijon.es/directorios/show/660-farmacia-lda-beatriz-morana;660;es;fecha-actualizacion2014-01-22 12:02:37 +0100;http://www.gijon.es/data/images/f6/6581/150x178_v1_DirectorioFarmacias_ParafarmaciasFarmacia1.jpg;Farmacia Lda. Beatriz Moraña;985 363 169;;;;Lunes a Viernes:9:30-13:30h. y 16:15-19:30h.(Veranos 16:45-20:00h.) Sábados:9:45-13:30h.;;C/Playa, 18;43.540021 -5.653831;Farmacias, 2010, Gijón
http://www.gijon.es/directorios/show/659-farmacia-lda-beatriz-gomez-menendez;659;es;fecha-actualizacion2014-01-22 12:02:37 +0100;http://www.gijon.es/data/images/f6/6580/150x178_v1_DirectorioFarmacias_ParafarmaciasFarmacia1.jpg;Farmacia Lda. Beatriz Gómez Menéndez;985 391 274;985 394 886;;;Lunes a Viernes:9:30-13:30h. y 16:15-19:30h.(Veranos 16:45-20:00h.) Sábados:9:45-13:30h.;;Farmacia Ld. Beatriz Gómez Menéndez - Avda. Schultz, 7;43.537085 -5.664766;Farmacias, 2010, Gijón
http://www.gijon.es/directorios/show/658-farmacia-laso-ubeda;658;es;fecha-actualizacion2014-01-22 12:02:37 +0100;http://www.gijon.es/data/images/f6/6579/150x178_v1_DirectorioFarmacias_ParafarmaciasFarmacia1.jpg;Farmacia Laso Ubeda;985 388 109;;;;Lunes a Viernes:9:30-13:30h. y 16:15-19:30h.(Veranos 16:45-20:00h.) Sábados:9:45-13:30h.;;Farnacia Laso Ubeda - C/Naranjo de Bulnes, 10;43.526199 -5.680404;Farmacias, 2010, Gijón
http://www.gijon.es/directorios/show/657-farmacia-julia-garcia-y-olvido-martinez;657;es;fecha-actualizacion2014-01-22 12:02:37 +0100;http://www.gijon.es/data/images/f6/6578/150x178_v1_DirectorioFarmacias_ParafarmaciasFarmacia1.jpg;Farmacia Julia García y Olvido Martínez;985 320 407;;;;Lunes a Viernes:9:30-13:30h. y 16:15-19:30h.(Veranos 16:45-20:00h.) Sábados:9:45-13:30h.;Productos: Plantas medicinales, Fórmulas magistrales, cósmeticos, vitaminas.;C/Brasil, 12;43.540577 -5.699437;Farmacias, 2010, Gijón
http://www.gijon.es/directorios/show/656-farmacia-josefa-emilia-alvarez-fernandez;656;es;fecha-actualizacion2014-01-22 12:02:37 +0100;http://www.gijon.es/data/images/f6/6577/150x178_v1_DirectorioFarmacias_ParafarmaciasFarmacia1.jpg;Farmacia Josefa Emilia Álvarez Fernández;985 346 139;;;;Lunes a Viernes:9:30-13:30h. y 16:15-19:30h.(Veranos 16:45-20:00h.) Sábados:9:45-13:30h.;;Avda. de Portugal, 39;43.537136 -5.672875;Farmacias, 2010, Gijón
http://www.gijon.es/directorios/show/655-farmacia-jose-manuel-reboreda-somoza;655;es;fecha-actualizacion2014-01-22 12:02:37 +0100;http://www.gijon.es/data/images/f6/6576/150x178_v1_DirectorioFarmacias_ParafarmaciasFarmacia1.jpg;Farmacia José Manuel Reboreda Somoza;985 321 265;985 321 265;;;Lunes a Viernes:9:30-13:30h. y 16:15-19:30h.(Veranos 16:45-20:00h.) Sábados:9:45-13:30h.;Productos: Medicamentos.;Avda. de Galicia, 4;43.540577 -5.68285;Farmacias, 2010, Gijón
http://www.gijon.es/directorios/show/654-farmacia-jose-luis-sanchez-suarez;654;es;fecha-actualizacion2014-01-22 12:02:37 +0100;http://www.gijon.es/data/images/f6/6575/150x178_v1_DirectorioFarmacias_ParafarmaciasFarmacia1.jpg;Farmacia José Luis Sánchez Suárez;985 334 188;;;;Lunes a Viernes:9:30-13:30h. y 16:15-19:30h.(Veranos 16:45-20:00h.) Sábados:9:45-13:30h.;;Avda. de H. Felgueroso, 23;43.535366 -5.658538;Farmacias, 2010, Gijón
http://www.gijon.es/directorios/show/653-farmacia-jose-luis-criado-alvarez;653;es;fecha-actualizacion2014-01-22 12:02:37 +0100;http://www.gijon.es/data/images/f6/6574/150x178_v1_DirectorioFarmacias_ParafarmaciasFarmacia1.jpg;Farmacia José Luis Criado Álvarez;985 384 825;985 384 825;;;Lunes a Viernes:9:30-13:30h. y 16:15-19:30h.(Veranos 16:45-20:00h.) Sábados:9:45-13:30h.;;C/Juan Alvargonzález, 10;43.530442 -5.670544;Farmacias, 2010, Gijón
http://www.gijon.es/directorios/show/652-farmacia-isabel-figaredo-arce;652;es;fecha-actualizacion2014-01-22 12:02:37 +0100;http://www.gijon.es/data/images/f6/6573/150x178_v1_DirectorioFarmacias_ParafarmaciasFarmacia1.jpg;Farmacia Isabel Figaredo Arce;985 134 952;;;;Lunes a Viernes:9:30-13:30h. y 16:15-19:30h.(Veranos 16:45-20:00h.) Sábados:9:45-13:30h.;;C/Ezcurdia, 194;43.53432 -5.639288;Farmacias, 2010, Gijón
http://www.gijon.es/directorios/show/651-farmacia-imperio-souto-garcia;651;es;fecha-actualizacion2014-01-22 12:02:37 +0100;http://www.gijon.es/data/images/f6/6572/150x178_v1_DirectorioFarmacias_ParafarmaciasFarmacia1.jpg;Farmacia Imperio Souto García;985 341 213;985 341 213;"i<a href=http://impesg@hotmail.com"" title=""Ir a impesg@hotmail.com"">mpesg@hotmail.com</a>""";;Lunes a Viernes:9:30-13:30h. y 16:15-19:30h.(Veranos 16:45-20:00h.) Sábados:9:45-13:30h.;;C/Menéndez Valdés, 29;43.539998 -5.658788;Farmacias, 2010, Gijón
http://www.gijon.es/directorios/show/650-farmacia-humberto-migoya-guijarro;650;es;fecha-actualizacion2014-01-22 12:02:37 +0100;http://www.gijon.es/data/images/f6/6571/150x178_v1_DirectorioFarmacias_ParafarmaciasFarmacia1.jpg;Farmacia Humberto Migoya Guijarro;985 384 503;985 384 503;;;Lunes a Viernes:9:30-13:30h. y 16:15-19:30h.(Veranos 16:45-20:00h.) Sábados:9:45-13:30h.;;C/Ramiro I, 20;43.531162 -5.658812;Farmacias, 2010, Gijón
http://www.gijon.es/directorios/show/649-farmacia-gonzalo;649;es;fecha-actualizacion2014-01-22 12:02:37 +0100;http://www.gijon.es/data/images/f6/6570/150x178_v1_DirectorioFarmacias_ParafarmaciasFarmacia1.jpg;Farmacia Gonzalo;985 387 104;;;;Lunes a Viernes:9:30-13:30h. y 16:15-19:30h.(Veranos 16:45-20:00h.) Sábados:9:45-13:30h.;;C/San José, 54;43.534218 -5.662949;Farmacias, 2010, Gijón
http://www.gijon.es/directorios/show/648-farmacia-gonzalez-y-mazoy-c-b;648;es;fecha-actualizacion2014-01-22 12:02:37 +0100;http://www.gijon.es/data/images/f6/6569/150x178_v1_DirectorioFarmacias_ParafarmaciasFarmacia1.jpg;Farmacia González y Mazoy C.B.;985 160 505;;c08696@cofas.es;;Lunes a Viernes:9:30-13:30h. y 16:15-19:30h.(Veranos 16:45-20:00h.) Sábados:9:45-13:30h.;;C/Río Narcea, 19;43.519855 -5.665287;Farmacias, 2010, Gijón
http://www.gijon.es/directorios/show/647-farmacia-gonzalez-bures;647;es;fecha-actualizacion2014-01-22 12:02:37 +0100;http://www.gijon.es/data/images/f6/6568/150x178_v1_DirectorioFarmacias_ParafarmaciasFarmacia1.jpg;Farmacia González Bures;985 365 269;;;;Lunes a Viernes:9:30-13:30h. y 16:15-19:30h.(Veranos 16:45-20:00h.) Sábados:9:45-13:30h.;;C/Vicente Innerarity, 7;43.536257 -5.650315;Farmacias, 2010, Gijón
http://www.gijon.es/directorios/show/646-farmacia-garzo;646;es;fecha-actualizacion2014-01-22 12:02:37 +0100;http://www.gijon.es/data/images/f6/6567/150x178_v1_DirectorioFarmacias_ParafarmaciasFarmacia1.jpg;Farmacia Garzo;985 399 607;985 399 607;;;Lunes a Viernes:9:30-13:30h. y 16:15-19:30h.(Veranos 16:45-20:00h.) Sábados:9:45-13:30h.;;Avda. de H. Felgueroso, 71;43.530876 -5.654963;Farmacias, 2010, Gijón
http://www.gijon.es/directorios/show/645-farmacia-garitano;645;es;fecha-actualizacion2014-01-22 12:02:37 +0100;http://www.gijon.es/data/images/f6/6566/150x178_v1_DirectorioFarmacias_ParafarmaciasFarmacia1.jpg;Farmacia Garitano;985 350 462;;;;Lunes a Viernes:9:30-13:30h. y 16:15-19:30h.(Veranos 16:45-20:00h.) Sábados:9:45-13:30h.;Productos: Fórmulas magistrales, antigripales, balsamos, analgésicos.;C/Moros, 22;43.541224 -5.663326;Farmacias, 2010, Gijón
http://www.gijon.es/directorios/show/644-farmacia-garcia-moreno;644;es;fecha-actualizacion2014-01-22 12:02:37 +0100;http://www.gijon.es/data/images/f6/6565/150x178_v1_DirectorioFarmacias_ParafarmaciasFarmacia1.jpg;Farmacia García Moreno;985 344 624;985 344 624;;;Lunes a Viernes:9:30-13:30h. y 16:15-19:30h.(Veranos 16:45-20:00h.) Sábados:9:45-13:30h.;Hoemopatía - Fórmulas magistrales.Fitoterapia.;C/Asturias, 13;43.539895 -5.665346;Farmacias, 2010, Gijón
http://www.gijon.es/directorios/show/643-farmacia-fueyo;643;es;fecha-actualizacion2014-01-22 12:02:37 +0100;http://www.gijon.es/data/images/f6/6564/150x178_v1_DirectorioFarmacias_ParafarmaciasFarmacia1.jpg;Farmacia Fueyo;985 363 769;;farmaciafueyo@cofas.es;;Lunes a Viernes:9:30-13:30h. y 16:15-19:30h.(Veranos 16:45-20:00h.) Sábados:9:45-13:30h.;Productos: Anáslisis clinicos, Plantas medicinales, Fórmulas magistrales, cósmeticos.;C/Marqués de Urquijo, 23;43.539055 -5.646619;Farmacias, 2010, Gijón
http://www.gijon.es/directorios/show/642-farmacia-fernandez-macias;642;es;fecha-actualizacion2014-01-22 12:02:36 +0100;http://www.gijon.es/data/images/f6/6563/150x178_v1_DirectorioFarmacias_ParafarmaciasFarmacia1.jpg;Farmacia Fernández Macias;985 164 571;;;;Lunes a Viernes:9:30-13:30h. y 16:15-19:30h.(Veranos 16:45-20:00h.) Sábados:9:45-13:30h.;;C/Río de Oro, 48;43.528873 -5.663541;Farmacias, 2010, Gijón
http://www.gijon.es/directorios/show/641-farmacia-escalera;641;es;fecha-actualizacion2014-01-22 12:02:36 +0100;http://www.gijon.es/data/images/f6/6562/150x178_v1_DirectorioFarmacias_ParafarmaciasFarmacia1.jpg;Farmacia Escalera;985 341 320;985 353 947;;;Lunes a Viernes:9:30-13:30h. y 16:15-19:30h.(Veranos 16:45-20:00h.) Sábados:9:45-13:30h.;;C/San Bernardo, 25;43.542935 -5.661848;Farmacias, 2010, Gijón
http://www.gijon.es/directorios/show/640-farmacia-eguiguren;640;es;fecha-actualizacion2014-01-22 12:02:36 +0100;http://www.gijon.es/data/images/f6/6561/150x178_v1_DirectorioFarmacias_ParafarmaciasFarmacia1.jpg;Farmacia Eguiguren;985 323 475;;;;Lunes a Viernes:9:30-13:30h. y 16:15-19:30h.(Veranos 16:45-20:00h.) Sábados:9:45-13:30h.;;C/Hernán Cortés, 22;43.54011 -5.70449;Farmacias, 2010, Gijón
http://www.gijon.es/directorios/show/639-farmacia-del-muelle-lda-rosa-m-suarez-pellico-y-magaly-fernandez-riesgo;639;es;fecha-actualizacion2014-01-22 12:02:36 +0100;http://www.gijon.es/data/images/f6/6560/150x178_v1_DirectorioFarmacias_ParafarmaciasFarmacia1.jpg;Farmacia del Muelle - Lda Rosa M. Suárez Pellico y Magaly Fernández Riesgo;985 343 259;;c04373@cofas.es;;Lunes a Viernes:9:30-13:30h. y 16:15-19:30h.(Veranos 16:45-20:00h.) Sábados:9:45-13:30h.;;Farmacia del Muelle-Lda Rosa M. Suarez Pellico y Magal y Fernández Riesgo - C/Corrida, 1;43.543233 -5.66426;Farmacias, 2010, Gijón
http://www.gijon.es/directorios/show/638-farmacia-del-coz;638;es;fecha-actualizacion2014-01-22 12:02:36 +0100;http://www.gijon.es/data/images/f6/6559/150x178_v1_DirectorioFarmacias_ParafarmaciasFarmacia1.jpg;Farmacia del Coz;985 327 499;985 327 499;;;Lunes a Viernes:9:30-13:30h. y 16:15-19:30h.(Veranos 16:45-20:00h.) Sábados:9:45-13:30h.;Productos: Parafarmacia.;Avda. Campones (Tremañes), 88;43.531273 -5.696948;Farmacias, 2010, Gijón
http://www.gijon.es/directorios/show/637-farmacia-de-roces-rafael-jesus-goyanes-riesgo;637;es;fecha-actualizacion2014-01-22 12:02:36 +0100;http://www.gijon.es/data/images/f6/6558/150x178_v1_DirectorioFarmacias_ParafarmaciasFarmacia1.jpg;Farmacia de Roces - Rafael Jesús Goyanes Riesgo;985 386 367;;;;Lunes a Viernes:9:30-13:30h. y 16:15-19:30h.(Veranos 16:45-20:00h.) Sábados:9:45-13:30h.;"La Farmacia ubicada en Gijón es una farmacia de referencia a nivel local y nacional como Espacio de Salud"" y servicios de ""Atención Farmacéutica"" y ""Formulación Magistral"" a través de la innovación  de la formación contínua y de las nuevas tecnologías para ampliar la difusión de nuestros servicios.Servicios: análisis  controles atención farmaceútica  nutrición estética - podología-ortopedia -perforación de orejas y reciclaje de medicamentos.""";C/Salvador Allende, 69;43.516848 -5.677308;Farmacias, 2010, Gijón
http://www.gijon.es/directorios/show/636-farmacia-de-jove;636;es;fecha-actualizacion2014-01-22 12:02:36 +0100;http://www.gijon.es/data/images/f6/6557/150x178_v1_DirectorioFarmacias_ParafarmaciasFarmacia1.jpg;Farmacia de Jove;985 300 804;;;;Lunes a Viernes:9:30-13:30h. y 16:15-19:30h.(Veranos 16:45-20:00h.) Sábados:9:45-13:30h.;;Avda. Eduardo Castro, 135;43.545224 -5.697688;Farmacias, 2010, Gijón
http://www.gijon.es/directorios/show/635-farmacia-cuadrado;635;es;fecha-actualizacion2014-01-22 12:02:36 +0100;http://www.gijon.es/data/images/f6/6556/150x178_v1_DirectorioFarmacias_ParafarmaciasFarmacia1.jpg;Farmacia Cuadrado;985 149 289;;;;Lunes a Viernes:9:30-13:30h. y 16:15-19:30h.(Veranos 16:45-20:00h.) Sábados:9:45-13:30h.;;Avda. de H. Felgueroso, 56;43.533554 -5.657449;Farmacias, 2010, Gijón
http://www.gijon.es/directorios/show/634-farmacia-corona;634;es;fecha-actualizacion2014-01-22 12:02:36 +0100;http://www.gijon.es/data/images/f6/6555/150x178_v1_DirectorioFarmacias_ParafarmaciasFarmacia1.jpg;Farmacia Corona;985 397 729;;;;Lunes a Viernes:9:30-13:30h. y 16:15-19:30h.(Veranos 16:45-20:00h.) Sábados:9:45-13:30h.;;C/Baleares, 23;43.529007 -5.670675;Farmacias, 2010, Gijón
http://www.gijon.es/directorios/show/633-farmacia-pumarin-ldo-jose-antonio-vinuela-collado;633;es;fecha-actualizacion2014-01-22 12:02:36 +0100;http://www.gijon.es/data/images/f6/6554/150x178_v1_DirectorioFarmacias_ParafarmaciasFarmacia1.jpg;Farmacia Pumarín - Ldo. José Antonio Viñuela Collado;985 389 149;;;;Lunes a Viernes:9:30-13:30h. y 16:15-19:30h.(Veranos 16:45-20:00h.) Sábados:9:45-13:30h.;;C/Mancha, 29;43.523877 -5.669948;Farmacias, 2010, Gijón
http://www.gijon.es/directorios/show/632-farmacia-consuelo-magdaleno-gonzalez;632;es;fecha-actualizacion2014-01-22 12:02:36 +0100;http://www.gijon.es/data/images/f6/6553/150x178_v1_DirectorioFarmacias_ParafarmaciasFarmacia1.jpg;Farmacia Consuelo Magdaleno González;985 342 423;;c.magdaleno@microsoft.com;;Lunes a Viernes:9:30-13:30h. y 16:15-19:30h.(Veranos 16:45-20:00h.) Sábados:9:45-13:30h.;;C/Marqués de San Esteban, 33;43.541876 -5.667897;Farmacias, 2010, Gijón
http://www.gijon.es/directorios/show/631-farmacia-cimadevilla;631;es;fecha-actualizacion2014-01-22 12:02:36 +0100;http://www.gijon.es/data/images/f6/6552/150x178_v1_DirectorioFarmacias_ParafarmaciasFarmacia1.jpg;Farmacia Cimadevilla;985 348 577;;;;Lunes a Viernes:9:30-13:30h. y 16:15-19:30h.(Veranos 16:45-20:00h.) Sábados:9:45-13:30h.;;C/Escultor Sebastián Miranda, 6;43.546351 -5.661998;Farmacias, 2010, Gijón
http://www.gijon.es/directorios/show/630-farmacia-cesar-amez-puerta;630;es;fecha-actualizacion2014-01-22 12:02:36 +0100;http://www.gijon.es/data/images/f6/6551/150x178_v1_DirectorioFarmacias_ParafarmaciasFarmacia1.jpg;Farmacia César Amez Puerta;985 320 098;;;;Lunes a Viernes:9:30-13:30h. y 16:15-19:30h.(Veranos 16:45-20:00h.) Sábados:9:45-13:30h.;;Avda. de Galicia, 51;43.540215 -5.687603;Farmacias, 2010, Gijón
http://www.gijon.es/directorios/show/629-farmacia-carmen-vinuela;629;es;fecha-actualizacion2014-01-22 12:02:36 +0100;http://www.gijon.es/data/images/f6/6550/150x178_v1_DirectorioFarmacias_ParafarmaciasFarmacia1.jpg;Farmacia Carmen Vinuela;985 344 624;;;;Lunes a Viernes:9:30-13:30h. y 16:15-19:30h.(Veranos 16:45-20:00h.) Sábados:9:45-13:30h.;;C/Donato Argüelles, 15;43.539823 -5.664581;Farmacias, 2010, Gijón
http://www.gijon.es/directorios/show/628-farmacia-carmen-sanchez-moreno;628;es;fecha-actualizacion2014-01-22 12:02:36 +0100;http://www.gijon.es/data/images/f6/6549/150x178_v1_DirectorioFarmacias_ParafarmaciasFarmacia1.jpg;Farmacia Carmen Sánchez Moreno;985 161 525;985 391 863;c.sanchez.012@recol.es;;Lunes a Viernes:9:30-13:30h. y 16:15-19:30h.(Veranos 16:45-20:00h.) Sábados:9:45-13:30h.;;Avda. Gaspar García Laviana, s/n.;43.527382 -5.675316;Farmacias, 2010, Gijón
http://www.gijon.es/directorios/show/627-farmacia-carmen-maria-montes-alvarez;627;es;fecha-actualizacion2014-01-22 12:02:36 +0100;http://www.gijon.es/data/images/f6/6548/150x178_v1_DirectorioFarmacias_ParafarmaciasFarmacia1.jpg;Farmacia Carmen María Montes Álvarez;985 351 637;985 172 647;;;Lunes a Viernes:9:30-13:30h. y 16:15-19:30h.(Veranos 16:45-20:00h.) Sábados:9:45-13:30h.;;C/Alfredo Truán, 6;43.53824 -5.662049;Farmacias, 2010, Gijón
http://www.gijon.es/directorios/show/626-farmacia-carmen-llano;626;es;fecha-actualizacion2014-01-22 12:02:36 +0100;http://www.gijon.es/data/images/f6/6547/150x178_v1_DirectorioFarmacias_ParafarmaciasFarmacia1.jpg;Farmacia Carmen Llano;985 363 512;;;;Lunes a Viernes:9:30-13:30h. y 16:15-19:30h.(Veranos 16:45-20:00h.) Sábados:9:45-13:30h.;Productos: Anáslisis clinicos, Fórmulas magistrales, Plantas medicinales.;C/Torcuato Fernández Miranda, 6;43.537416 -5.646088;Farmacias, 2010, Gijón
http://www.gijon.es/directorios/show/625-farmacia-carlos-checa;625;es;fecha-actualizacion2014-01-22 12:02:36 +0100;http://www.gijon.es/data/images/f6/6546/150x178_v1_DirectorioFarmacias_ParafarmaciasFarmacia1.jpg;Farmacia Carlos Checa;985 387 813;;;;Lunes a Viernes:9:30-13:30h. y 16:15-19:30h.(Veranos 16:45-20:00h.) Sábados:9:45-13:30h.;;Avda. Schultz, 142;43.528877 -5.666867;Farmacias, 2010, Gijón
http://www.gijon.es/directorios/show/624-farmacia-capellin-rodriguez;624;es;fecha-actualizacion2014-01-22 12:02:36 +0100;http://www.gijon.es/data/images/f6/6545/150x178_v1_DirectorioFarmacias_ParafarmaciasFarmacia1.jpg;Farmacia Capellín Rodríguez;985 368 758;;;;Lunes a Viernes:9:30-13:30h. y 16:15-19:30h.(Veranos 16:45-20:00h.) Sábados:9:45-13:30h.;Productos: Plantas medicinales, cósmeticos, zapatos ortopédicos, plantillas.;C/Ramón y Cajal, 21;43.534802 -5.653238;Farmacias, 2010, Gijón
http://www.gijon.es/directorios/show/623-farmacia-cabrales;623;es;fecha-actualizacion2014-01-22 12:02:36 +0100;http://www.gijon.es/data/images/f6/6544/150x178_v1_DirectorioFarmacias_ParafarmaciasFarmacia1.jpg;Farmacia Cabrales;985 342 926;;;;Lunes a Viernes:9:30-13:30h. y 16:15-19:30h.(Veranos 16:45-20:00h.) Sábados:9:45-13:30h.;;C/Cabrales, 78;43.53999 -5.660115;Farmacias
http://www.gijon.es/directorios/show/622-farmacia-blasco;622;es;fecha-actualizacion2014-01-22 12:02:36 +0100;http://www.gijon.es/data/images/f6/6543/150x178_v1_DirectorioFarmacias_ParafarmaciasFarmacia1.jpg;Farmacia Blasco;985 360 312;;;;Lunes a Viernes:9:30-13:30h. y 16:15-19:30h.(Veranos 16:45-20:00h.) Sábados:9:45-13:30h.;;C/Menéndez y Pelayo, 14;43.538724 -5.652066;Farmacias
http://www.gijon.es/directorios/show/621-farmacia-begona;621;es;fecha-actualizacion2014-01-22 12:02:36 +0100;http://www.gijon.es/data/images/f6/6542/150x178_v1_DirectorioFarmacias_ParafarmaciasFarmacia1.jpg;Farmacia Begoña;985 342 518;;;;Lunes a Viernes:9:30-13:30h. y 16:15-19:30h.(Veranos 16:45-20:00h.) Sábados:9:45-13:30h.;;Paseo de Begoña, 7;43.539554 -5.661368;Farmacias, 2010, Gijón
http://www.gijon.es/directorios/show/620-farmacia-bada;620;es;fecha-actualizacion2014-01-22 12:02:36 +0100;http://www.gijon.es/data/images/f6/6541/150x178_v1_DirectorioFarmacias_ParafarmaciasFarmacia1.jpg;Farmacia Bada;985 399 411;;;;Lunes a Viernes:9:30-13:30h. y 16:15-19:30h.(Veranos 16:45-20:00h.) Sábados:9:45-13:30h.;;Avda. de El Llano, 57;43.529562 -5.661671;Farmacias, 2010, Gijón
http://www.gijon.es/directorios/show/619-farmacia-azcona;619;es;fecha-actualizacion2014-01-22 12:02:36 +0100;http://www.gijon.es/data/images/f6/6540/150x178_v1_DirectorioFarmacias_ParafarmaciasFarmacia1.jpg;Farmacia Azcona;985 195 839;;;;Lunes a Viernes:9:30-13:30h. y 16:15-19:30h.(Veranos 16:45-20:00h.) Sábados:9:45-13:30h.;Productos: Anáslisis clinicos, Plantas medicinales, cósmeticos, Fórmulas magistrales, analgésicos, antigripales.;C/Ramón y Cajal, 48;43.532708 -5.654199;Farmacias, 2010, Gijón
http://www.gijon.es/directorios/show/618-farmacia-ateneo;618;es;fecha-actualizacion2014-01-22 12:02:35 +0100;http://www.gijon.es/data/images/f6/6539/150x178_v1_DirectorioFarmacias_ParafarmaciasFarmacia1.jpg;Farmacia Ateneo;985 321 865;;;;Lunes a Viernes:9:30-13:30h. y 16:15-19:30h.(Veranos 16:45-20:00h.) Sábados:9:45-13:30h.;Licenciadas Parga y Lago.Homeopatía.;C/Ateneo Obrero de Calzada, 2;43.539325 -5.694823;Farmacias, 2010, Gijón
http://www.gijon.es/directorios/show/617-farmacia-aranzazuz-fernandez-nespral;617;es;fecha-actualizacion2014-01-22 12:02:35 +0100;http://www.gijon.es/data/images/f6/6538/150x178_v1_DirectorioFarmacias_ParafarmaciasFarmacia1.jpg;Farmacia Aranzazuz Fernández - Nespral;985 344 131;;;;Lunes a Viernes:9:30-13:30h. y 16:15-19:30h.(Veranos 16:45-20:00h.) Sábados:9:45-13:30h.;Farmacia y OrtopediaProductos: Plantas medicinales, Fórmulas magistrales, cósmeticos.;C/Marqués de San Esteban, 62;43.541427 -5.670718;Farmacias, 2010, Gijón
http://www.gijon.es/directorios/show/616-farmacia-angeles-fernandez-macias;616;es;fecha-actualizacion2014-01-22 12:02:35 +0100;http://www.gijon.es/data/images/f6/6537/150x178_v1_DirectorioFarmacias_ParafarmaciasFarmacia1.jpg;Farmacia Ángeles Fernández Macias;985 132 190;;;;Lunes a Viernes:9:30-13:30h. y 16:15-19:30h.(Veranos 16:45-20:00h.) Sábados:9:45-13:30h.;;Avda. Pablo Iglesias, 90;43.535177 -5.648147;Farmacias, 2010, Gijón
http://www.gijon.es/directorios/show/615-farmacia-ana-maria-carrocera-villa;615;es;fecha-actualizacion2014-01-22 12:02:35 +0100;http://www.gijon.es/data/images/f6/6536/150x178_v1_DirectorioFarmacias_ParafarmaciasFarmacia1.jpg;Farmacia Ana María Carrocera Villa;985 347 016;;;;Lunes a Viernes:9:30-13:30h. y 16:15-19:30h.(Veranos 16:45-20:00h.) Sábados:9:45-13:30h.;;C/San Bernardo, 36;43.54222 -5.661768;Farmacias, 2010, Gijón
http://www.gijon.es/directorios/show/614-farmacia-ana-alemany-sirgo;614;es;fecha-actualizacion2014-01-22 12:02:35 +0100;http://www.gijon.es/data/images/f6/6535/150x178_v1_DirectorioFarmacias_ParafarmaciasFarmacia1.jpg;Farmacia Ana Alemany Sirgo;985 365 879;;;;Lunes a Viernes:9:30-13:30h. y 16:15-19:30h.(Veranos 16:45-20:00h.) Sábados:9:45-13:30h.;;Framacia Ana Alemany Sirgo - Avda. de la Costa, 137;43.536284 -5.648121;Farmacias, 2010, Gijón
http://www.gijon.es/directorios/show/613-farmacia-amparo-torrero-de-villa;613;es;fecha-actualizacion2014-01-22 12:02:35 +0100;http://www.gijon.es/data/images/f6/6534/150x178_v1_DirectorioFarmacias_ParafarmaciasFarmacia1.jpg;Farmacia Amparo Torrero de Villa;985 344 375;;;;Lunes a Viernes:9:30-13:30h. y 16:15-19:30h.(Veranos 16:45-20:00h.) Sábados:9:45-13:30h.;;C/Castro Romano, 1;43.547477 -5.665861;Farmacias, 2010, Gijón
http://www.gijon.es/directorios/show/612-farmacia-alonso-luengo;612;es;fecha-actualizacion2014-01-22 12:02:35 +0100;http://www.gijon.es/data/images/f6/6533/150x178_v1_DirectorioFarmacias_ParafarmaciasFarmacia1.jpg;Farmacia Alonso Luengo;985 370 150;;;;Lunes a Viernes:9:30-13:30h. y 16:15-19:30h.(Veranos 16:45-20:00h.) Sábados:9:45-13:30h.;;C/Uría, 39;43.538267 -5.654531;Farmacias, 2010, Gijón
http://www.gijon.es/directorios/show/611-farmacia-alonso-barrena;611;es;fecha-actualizacion2014-01-22 12:02:35 +0100;http://www.gijon.es/data/images/f6/6532/150x178_v1_DirectorioFarmacias_ParafarmaciasFarmacia1.jpg;Farmacia Alonso Barrena;985 360 345;;;;Lunes a Viernes:9:30-13:30h. y 16:15-19:30h.(Veranos 16:45-20:00h.) Sábados:9:45-13:30h.;;C/Ezcurdia, 101;43.536054 -5.644736;Farmacias, 2010, Gijón
http://www.gijon.es/directorios/show/610-farmacia-alejandro-rodriguez;610;es;fecha-actualizacion2014-01-22 12:02:35 +0100;http://www.gijon.es/data/images/f6/6531/150x178_v1_DirectorioFarmacias_ParafarmaciasFarmacia1.jpg;Farmacia Alejandro Rodríguez;985 346 948;;;;Lunes a Viernes:9:30-13:30h. y 16:15-19:30h.(Veranos 16:45-20:00h.) Sábados:9:45-13:30h.;;Avda. Constitución, 56;43.53404 -5.669423;2010, Gijón, Farmacias
http://www.gijon.es/directorios/show/510-coordinacion-farmaceuticos-salud-publica-s-p;510;es;fecha-actualizacion2014-01-22 12:02:32 +0100;http://www.gijon.es/data/images/f6/6465/150x178_v1_DirectorioFarmacias_ParafarmaciasFarmacia1.jpg;Coordinación.Farmacéuticos.Salud Pública.S.P.;985 176 980;985 176 981;gloriagh@princast.es;;;;C/Trinidad, 6;43.544483 -5.663739;Farmacias, 2010, Gijón
http://www.gijon.es/directorios/show/489-colegio-oficial-de-farmaceuticos-de-asturias;489;es;fecha-actualizacion2015-09-25 14:10:47 +0200;http://www.gijon.es/data/images/f6/6452/150x178_v1_DirectorioFarmacias_ParafarmaciasFarmacia1.jpg;Colegio Oficial de Farmaceúticos de Asturias;985 219 901;;contacto@farmasturias.org;;;;Campomanes, 24-1º 33008 Oviedo;43.358035 -5.846947;Farmacias, 2010, Gijón, Sanidad
